IRIDIUM 155             
1 43573U 18061E   23049.44118600  .00000555  00000+0  19096-3 0  9992
2 43573  86.3998 204.3095 0002115  86.0866 274.0571 14.34215930239241
IRIDIUM 154             
1 43574U 18061F   23049.42215726  .00000572  00000+0  19706-3 0  9995
2 43574  86.4004 204.3921 0002149  99.9830 260.1608 14.34216502239298
IRIDIUM 163             
1 43575U 18061G   23049.33333226  .00000580  00000+0  19988-3 0  9993
2 43575  86.3997 204.3819 0001735  97.0371 263.1022 14.34222097239259
IRIDIUM 156             
1 43576U 18061H   23049.37776234  .00000821  00000+0  28594-3 0  9999
2 43576  86.3998 204.3692 0001752  89.0954 271.0443 14.34215116239256
IRIDIUM 164             
1 43577U 18061J   23049.42850431  .00000643  00000+0  22263-3 0  9997
2 43577  86.4000 204.3697 0002015 100.3733 259.7690 14.34215734239301
IRIDIUM 159             
1 43578U 18061K   23049.39677730  .00000439  00000+0  14982-3 0  9995
2 43578  86.4000 204.3454 0002124  98.8635 261.2801 14.34213771239262
IRIDIUM 180             
1 43922U 19002A   23049.53581672  .00000523  00000+0  17971-3 0  9994
2 43922  86.4010 141.2728 0002183 105.7684 254.3753 14.34220591214895
IRIDIUM 176             
1 43923U 19002B   23049.50808095  .00002161  00000+0  33896-3 0  9997
2 43923  86.6144 141.3263 0002009  90.5659 269.5789 14.72234210220531
IRIDIUM 168             
1 43924U 19002C   23049.32016744  .00000541  00000+0  18601-3 0  9997
2 43924  86.4012 141.4057 0002242 100.2696 259.8753 14.34220900214844
IRIDIUM 173             
1 43925U 19002D   23049.51678659  .00000530  00000+0  18203-3 0  9994
2 43925  86.4003 141.2607 0002161 101.0246 259.1193 14.34211164214869
IRIDIUM 169             
1 43926U 19002E   23049.59981051  .00000789  00000+0  25152-3 0  9993
2 43926  86.4294 172.7841 0005134  47.2290 312.9339 14.38610518215607
IRIDIUM 172             
1 43927U 19002F   23049.51045541  .00000628  00000+0  21719-3 0  9998
2 43927  86.4006 141.2691 0002158 103.1409 257.0028 14.34214919214862
IRIDIUM 175             
1 43928U 19002G   23049.50191394  .00002146  00000+0  33647-3 0  9996
2 43928  86.6149 141.1667 0002177  92.1174 268.0293 14.72241025220528
IRIDIUM 171             
1 43929U 19002H   23049.49142008  .00000448  00000+0  15279-3 0  9997
2 43929  86.4022 141.4487 0002293 101.7332 258.4121 14.34219096214855
IRIDIUM 170             
1 43930U 19002J   23049.51427027  .00002144  00000+0  33621-3 0  9995
2 43930  86.6140 141.3285 0002186  94.4043 265.7423 14.72241225220543
IRIDIUM 167             
1 43931U 19002K   23049.48508520  .00000626  00000+0  21652-3 0  9994
2 43931  86.4009 141.2914 0002133 102.2359 257.9076 14.34213683214853
